HIMAWARI-8              
1 40267U 14060A   23361.91230161 -.00000267  00000+0  00000+0 0  9992
2 40267   0.0412 222.6282 0001170  68.1164 274.4588  1.00272115 33718
